[{"OBJECT_NAME":"STARLINK-35077","OBJECT_ID":"2025-200K","EPOCH":"2026-03-09T17:18:38.202336","MEAN_MOTION":15.05645307,"ECCENTRICITY":0.00010011,"INCLINATION":97.602,"RA_OF_ASC_NODE":139.7977,"ARG_OF_PERICENTER":115.6685,"MEAN_ANOMALY":244.4645,"EPHEMERIS_TYPE":0,"CLASSIFICATION_TYPE":"U","NORAD_CAT_ID":65529,"ELEMENT_SET_NO":999,"REV_AT_EPOCH":2913,"BSTAR":0.00026033492,"MEAN_MOTION_DOT":3.697e-5,"MEAN_MOTION_DDOT":0},{"OBJECT_NAME":"COSMOS 886 DEB","OBJECT_ID":"1976-126AF","EPOCH":"2026-03-09T23:31:01.873920","MEAN_MOTION":14.3102807,"ECCENTRICITY":0.04259179,"INCLINATION":65.888,"RA_OF_ASC_NODE":14.8915,"ARG_OF_PERICENTER":257.6926,"MEAN_ANOMALY":97.6185,"EPHEMERIS_TYPE":0,"CLASSIFICATION_TYPE":"U","NORAD_CAT_ID":9819,"ELEMENT_SET_NO":999,"REV_AT_EPOCH":42137,"BSTAR":0.0011909255,"MEAN_MOTION_DOT":8.527e-5,"MEAN_MOTION_DDOT":0}]
